OBJECT_NAME,OBJECT_ID,EPOCH,MEAN_MOTION,ECCENTRICITY,INCLINATION,RA_OF_ASC_NODE,ARG_OF_PERICENTER,MEAN_ANOMALY,EPHEMERIS_TYPE,CLASSIFICATION_TYPE,NORAD_CAT_ID,ELEMENT_SET_NO,REV_AT_EPOCH,BSTAR,MEAN_MOTION_DOT,MEAN_MOTION_DDOT
STARLINK-30301,2023-124D,2025-05-19T09:38:33.237312,15.04924436,.0001107,53.1592,187.9997,85.5389,274.5727,0,U,57666,999,9772,.55599E-4,.519E-5,0
STARLINK-30275,2023-124E,2025-05-19T06:22:08.018112,15.30196154,.0001258,53.1590,134.6474,83.0990,277.0153,0,U,57667,999,9848,.20332E-4,.243E-5,0
STARLINK-30278,2023-124F,2025-05-19T09:22:38.785152,15.30195823,.0000952,53.1595,134.0353,75.0207,285.0899,0,U,57668,999,9850,.43165E-4,.919E-5,0
STARLINK-30271,2023-124G,2025-05-19T06:34:15.718656,15.30200897,.0001217,53.1595,134.5884,71.8445,288.2688,0,U,57669,999,9848,.14542E-4,.72E-6,0
STARLINK-30322,2023-124H,2025-05-19T09:28:43.252320,15.30196467,.0001242,53.1592,134.0409,73.5974,286.5164,0,U,57670,999,9850,.20354E-4,.244E-5,0
STARLINK-30296,2023-124J,2025-05-19T05:56:20.083488,15.30187199,.0001365,53.1597,134.6762,79.6572,280.4582,0,U,57671,999,9848,.31824E-4,.583E-5,0
STARLINK-30274,2023-124K,2025-05-19T08:41:40.417440,15.30189702,.0001094,53.1592,134.0775,94.7175,265.3951,0,U,57672,999,9850,-.7346E-5,-.576E-5,0
STARLINK-30316,2023-124L,2025-05-19T09:12:02.319552,15.30195502,.0001151,53.1593,134.1050,86.4239,273.6894,0,U,57673,999,9850,.14805E-4,.79E-6,0
STARLINK-30317,2023-124N,2025-05-19T17:03:41.105088,15.30192097,.0001321,53.1603,131.9790,78.3083,281.8065,0,U,57675,999,9856,.86888E-5,-.102E-5,0
STARLINK-30313,2023-124P,2025-05-19T07:12:10.515744,15.30182447,.0001237,53.1598,134.4009,94.9888,265.1254,0,U,57676,999,9849,.2912E-4,.503E-5,0
STARLINK-30303,2023-124Q,2025-05-19T09:17:58.202016,15.30192200,.0001215,53.1595,133.4875,80.7986,279.3153,0,U,57677,999,9851,.11531E-4,-.18E-6,0
STARLINK-30320,2023-124R,2025-05-19T07:50:24.019296,15.39623890,.0001107,53.1594,122.4958,108.4682,251.6443,0,U,57678,999,9866,.21427E-4,.458E-5,0
STARLINK-30321,2023-124S,2025-05-19T09:33:10.007136,15.30198774,.0001139,53.1578,133.5562,80.4046,279.7083,0,U,57679,999,9851,.77358E-4,.1933E-4,0
STARLINK-30283,2023-124T,2025-05-19T07:21:16.640640,15.30192403,.0001341,53.1599,134.3775,91.5385,268.5769,0,U,57680,999,9849,.15673E-4,.105E-5,0
STARLINK-30273,2023-124U,2025-05-19T06:29:42.414720,15.30198545,.0001253,53.1597,134.5858,78.2262,281.8880,0,U,57681,999,9848,.18908E-4,.201E-5,0
STARLINK-30297,2023-124V,2025-05-19T07:16:43.938048,15.30193420,.0001186,53.1597,134.4210,94.5886,265.5250,0,U,57682,999,9849,.67411E-5,-.159E-5,0
STARLINK-30295,2023-124W,2025-05-19T06:00:54.044064,15.30188965,.0001348,53.1595,134.7129,89.6068,270.5087,0,U,57683,999,9848,.27109E-4,.443E-5,0
CAPELLA-11 (ACADIA-1),2023-126A,2025-05-19T13:03:58.192128,14.78946763,.0002563,53.0086,81.8534,35.1606,324.9539,0,U,57693,999,9384,.25067E-3,.1647E-4,0
JILIN-1 KUANFU 02A,2023-127A,2025-05-19T20:51:38.274336,15.09868938,.0015831,97.5622,233.6972,228.4080,131.5793,0,U,57696,999,9591,.35247E-3,.5659E-4,0
STARLINK-30288,2023-129A,2025-05-19T10:25:39.379584,15.02533339,.0001627,43.0064,278.9432,278.3464,81.7194,0,U,57698,999,9639,-.75861E-4,-.1228E-4,0
STARLINK-30347,2023-129B,2025-05-19T16:25:12.817632,15.02507043,.0001227,43.0028,265.4530,267.8866,92.1836,0,U,57699,999,9657,-.24719E-3,-.3538E-4,0
STARLINK-30332,2023-129C,2025-05-19T10:20:52.009728,15.02532143,.0001706,43.0046,278.9200,276.6042,83.4606,0,U,57700,999,9625,-.2713E-3,-.3866E-4,0
STARLINK-30345,2023-129D,2025-05-19T10:01:50.883456,15.02534719,.0001036,43.0029,279.6834,266.0486,94.0238,0,U,57701,999,9624,-.25288E-4,-.545E-5,0
STARLINK-30333,2023-129E,2025-05-19T16:15:09.698112,15.02538825,.0001066,43.0034,278.1872,271.9005,88.1715,0,U,57702,999,9642,.10361E-3,.1196E-4,0
STARLINK-30336,2023-129F,2025-05-19T09:57:03.418560,15.02531340,.0001692,43.0067,279.6606,263.9331,96.1319,0,U,57703,999,9624,.75656E-4,.818E-5,0
STARLINK-30346,2023-129G,2025-05-19T11:18:23.779584,15.02532969,.000175,43.0046,279.2214,276.0936,83.9707,0,U,57704,999,9625,-.37104E-4,-.705E-5,0
STARLINK-30342,2023-129H,2025-05-19T10:16:04.541376,15.02525424,.0001294,43.0037,278.8975,274.0635,86.0060,0,U,57705,999,9639,-.90013E-4,-.1419E-4,0
STARLINK-30327,2023-129K,2025-05-19T09:43:06.748608,15.02540545,.0001624,43.0044,266.8757,273.8072,86.2585,0,U,57707,999,9639,-.67082E-4,-.111E-4,0
STARLINK-30315,2023-129L,2025-05-19T17:26:55.728960,15.02534076,.0001593,43.0039,277.7038,264.6606,95.4054,0,U,57708,999,9643,-.78411E-4,-.1263E-4,0
STARLINK-30287,2023-129M,2025-05-19T17:36:31.006944,15.02532998,.0001422,43.0037,277.7544,262.8599,97.2082,0,U,57709,999,9643,-.27929E-4,-.581E-5,0
STARLINK-30335,2023-129N,2025-05-19T11:08:47.987520,15.02535958,.0001096,43.0034,279.1726,266.6049,93.4668,0,U,57710,999,9639,.74601E-4,.804E-5,0
STARLINK-30318,2023-129P,2025-05-19T09:47:28.347072,15.02512872,.0001761,43.0038,279.5923,259.1275,100.9369,0,U,57711,999,9624,.1882E-3,.2338E-4,0
STARLINK-30348,2023-129Q,2025-05-19T10:54:25.121088,15.02537010,.000121,43.0026,279.0963,268.3425,91.7279,0,U,57712,999,9639,-.2603E-4,-.555E-5,0
STARLINK-30349,2023-129R,2025-05-19T15:32:00.887136,15.02534165,.0001354,43.0040,277.9638,275.2355,84.8333,0,U,57713,999,9628,.36527E-4,.29E-5,0
STARLINK-30341,2023-129S,2025-05-19T14:58:27.039648,15.02534246,.000141,43.0047,277.7875,273.5083,86.5598,0,U,57714,999,9642,-.29686E-5,-.244E-5,0
STARLINK-30300,2023-129T,2025-05-19T10:59:12.376032,15.02541169,.0001072,43.0024,279.1216,270.9024,89.1696,0,U,57715,999,9639,.60183E-4,.61E-5,0
STARLINK-30281,2023-129U,2025-05-19T13:41:54.063168,15.02539215,.0000478,43.0031,278.2476,238.3572,121.7224,0,U,57716,999,9611,.20825E-4,.78E-6,0
STARLINK-30325,2023-129V,2025-05-19T17:12:32.505696,15.02531080,.00014,43.0030,277.6268,259.2103,100.8582,0,U,57717,999,9643,.25066E-4,.135E-5,0
STARLINK-30338,2023-129W,2025-05-19T10:35:14.671392,15.02551016,.0001933,43.0052,278.9991,262.1534,97.9089,0,U,57718,999,9638,-.26082E-3,-.3727E-4,0
STARLINK-30334,2023-129X,2025-05-19T15:27:13.163904,15.02533494,.0001226,43.0033,277.9402,268.2163,91.8538,0,U,57719,999,9628,.36119E-4,.284E-5,0
YAOGAN-39 01A,2023-130A,2025-05-19T21:31:38.171712,15.22982192,.0004749,35.0021,82.0362,209.0165,151.0286,0,U,57727,999,9571,.42759E-3,.10275E-3,0
YAOGAN-39 01B,2023-130B,2025-05-19T21:17:01.242816,15.16363474,.0013074,34.9948,83.7222,120.9813,239.2186,0,U,57728,999,9571,.32513E-3,.6439E-4,0
YAOGAN-39 01C,2023-130E,2025-05-19T21:11:44.334528,15.16429111,.0000928,34.9940,83.6961,88.3261,271.7558,0,U,57731,999,9569,.27252E-3,.539E-4,0
STARLINK-30375,2023-131A,2025-05-19T21:01:10.850592,15.02533748,.0001067,43.0049,315.7998,262.6022,97.4699,0,U,57732,999,9576,.18173E-4,.42E-6,0
STARLINK-30310,2023-131B,2025-05-19T05:24:06.068736,15.02526196,.0001131,43.0056,331.4291,279.2142,80.8572,0,U,57733,999,9564,.66708E-4,.697E-5,0
STARLINK-30365,2023-131C,2025-05-19T20:38:23.232768,15.02529798,.0000805,43.0035,328.4234,246.0515,114.0243,0,U,57734,999,9570,-.17165E-4,-.435E-5,0
STARLINK-30371,2023-131D,2025-05-19T05:43:16.458816,15.02532493,.0001245,43.0058,331.5290,270.1548,89.9152,0,U,57735,999,9563,-.85199E-5,-.319E-5,0
STARLINK-30352,2023-131E,2025-05-19T21:26:09.995136,15.02537938,.000102,43.0055,327.8476,266.8068,93.2657,0,U,57736,999,9562,.42504E-4,.371E-5,0
STARLINK-30344,2023-131F,2025-05-19T12:23:45.912768,15.02525024,.000169,43.0047,330.1862,266.2517,93.8132,0,U,57737,999,9567,.18106E-3,.2242E-4,0
STARLINK-30351,2023-131G,2025-05-18T20:56:51.290304,15.02529703,.0001255,43.0051,333.9521,263.7375,96.3324,0,U,57738,999,9557,-.33418E-4,-.655E-5,0
STARLINK-30242,2023-131H,2025-05-19T19:37:01.001280,15.02533057,.0001186,43.0050,303.2488,267.3899,92.6808,0,U,57739,999,9590,.15744E-4,.9E-7,0
STARLINK-30331,2023-131J,2025-05-19T20:04:17.464800,15.27571948,.0001086,43.0021,318.9359,276.3262,83.7466,0,U,57740,999,9556,.19055E-3,.4984E-4,0
STARLINK-30364,2023-131K,2025-05-19T18:53:04.088832,15.02536707,.0001155,43.0055,328.7677,270.3563,89.7147,0,U,57741,999,9559,.64784E-4,.672E-5,0
STARLINK-30308,2023-131L,2025-05-19T20:47:59.001504,15.02533338,.0001209,43.0039,328.5072,263.9417,96.1288,0,U,57742,999,9562,.83102E-6,-.192E-5,0
STARLINK-30361,2023-131M,2025-05-19T20:23:59.771904,15.02539544,.0001082,43.0046,328.3832,268.5852,91.4866,0,U,57743,999,9561,.42598E-4,.372E-5,0
STARLINK-30363,2023-131N,2025-05-18T21:00:27.907200,15.02533961,.0001282,43.0054,321.1939,269.3408,90.7287,0,U,57744,999,9572,.36222E-4,.286E-5,0
STARLINK-30362,2023-131P,2025-05-19T20:19:12.178272,15.02541406,.0001026,43.0039,328.3566,273.2156,86.8569,0,U,57745,999,9550,.68527E-4,.722E-5,0
STARLINK-30350,2023-131Q,2025-05-19T21:02:21.114528,15.02538658,.0001117,43.0034,328.5639,262.8793,97.1922,0,U,57746,999,9571,.83646E-4,.927E-5,0
STARLINK-30307,2023-131R,2025-05-19T20:20:45.243168,15.02567001,.0003525,43.0102,328.3715,276.4696,83.5745,0,U,57747,999,9561,.15606E-3,.1906E-4,0
STARLINK-30356,2023-131S,2025-05-19T20:09:36.878688,15.02507154,.000096,43.0033,328.3054,272.4832,87.5900,0,U,57748,999,9561,.534E-3,.7012E-4,0
STARLINK-30366,2023-131T,2025-05-19T05:19:18.177888,15.02533355,.0001414,43.0055,331.4053,267.9504,92.1177,0,U,57749,999,9552,-.10674E-3,-.1645E-4,0
STARLINK-30357,2023-131U,2025-05-19T19:55:13.921536,15.02538916,.0001303,43.0084,328.2331,270.3690,89.7003,0,U,57750,999,9561,.51189E-4,.488E-5,0
STARLINK-30370,2023-131V,2025-05-19T20:51:35.707392,15.02538506,.000112,43.0045,315.7855,266.1938,93.8776,0,U,57751,999,9576,.12663E-3,.1507E-4,0
STARLINK-30368,2023-131W,2025-05-19T20:33:34.787232,15.02540161,.0001178,43.0045,328.3992,274.2439,85.8269,0,U,57752,999,9571,.12281E-3,.1456E-4,0
STARLINK-30343,2023-131X,2025-05-19T20:00:01.624896,15.02534918,.0001099,43.0045,328.2553,262.7922,97.2795,0,U,57753,999,9561,.45059E-4,.405E-5,0
WILDFIRE 4,2023-133A,2025-05-19T10:32:11.796288,13.86277897,.0010104,81.0040,24.6696,346.0388,14.0487,0,U,57756,999,8656,.82235E-4,.106E-5,0
